NORAD_CAT_ID,OBJECT_NAME,OBJECT_TYPE,EPOCH,MEAN_MOTION,ECCENTRICITY,INCLINATION,RA_OF_ASC_NODE,ARG_OF_PERICENTER,MEAN_ANOMALY,BSTAR,MEAN_MOTION_DOT,MEAN_MOTION_DDOT,TLE_LINE0,TLE_LINE1,TLE_LINE2,SEMIMAJOR_AXIS,PERIOD,APOGEE,PERIGEE,DECAYED
53746.0,STARLINK-4589,PAYLOAD,2023-07-29 18:32:25,15.08934043,0.0001186,53.2153,226.4656,128.2243,231.8856,-0.0016005,-0.00025735,0.0,0 STARLINK-4589,1 53746U 22107AY  23210.77251955 -.00025735  00000-0 -16005-2 0  9994,2 53746  53.2153 226.4656 0001186 128.2243 231.8856 15.08934043 49806,6917.593,95.432,540.278,538.638,0.0
53746.0,STARLINK-4589,PAYLOAD,2023-07-30 00:54:02,15.08829645,9.62e-05,53.2154,225.2762,109.0455,251.0642,0.00016886,2.4e-05,0.0,0 STARLINK-4589,1 53746U 22107AY  23211.03752482  .00002400  00000-0  16886-3 0  9995,2 53746  53.2154 225.2762 0000962 109.0455 251.0642 15.08829645 49847,6917.912,95.438,540.443,539.112,0.0
53746.0,STARLINK-4589,PAYLOAD,2023-07-31 07:06:21,15.08848409,0.0001077,53.214,219.6287,84.8429,275.2686,0.00037542,5.693e-05,0.0,0 STARLINK-4589,1 53746U 22107AY  23212.29608566  .00005693  00000-0  37542-3 0  9996,2 53746  53.2140 219.6287 0001077  84.8429 275.2686 15.08848409 50038,6917.855,95.437,540.465,538.975,0.0
53746.0,STARLINK-4589,PAYLOAD,2023-07-31 23:00:13,15.08843425,0.0001147,53.2143,216.6545,86.0974,274.0149,0.00013593,1.876e-05,0.0,0 STARLINK-4589,1 53746U 22107AY  23212.95848568  .00001876  00000-0  13593-3 0  9996,2 53746  53.2143 216.6545 0001147  86.0974 274.0149 15.08843425 50137,6917.87,95.437,540.528,538.941,0.0
53746.0,STARLINK-4589,PAYLOAD,2023-08-02 06:47:55,15.08844134,0.0001149,53.2149,210.7069,87.9941,272.1182,4.4337e-05,4.18e-06,0.0,0 STARLINK-4589,1 53746U 22107AY  23214.28328232  .00000418  00000-0  44337-4 0  9997,2 53746  53.2149 210.7069 0001149  87.9941 272.1182 15.08844134 50331,6917.868,95.437,540.528,538.938,0.0
53746.0,STARLINK-4589,PAYLOAD,2023-08-03 03:27:56,15.08839761,0.0001046,53.2156,206.8416,88.0898,272.0214,6.2728e-05,7.11e-06,0.0,0 STARLINK-4589,1 53746U 22107AY  23215.14440507  .00000711  00000-0  62728-4 0  9993,2 53746  53.2156 206.8416 0001046  88.0898 272.0214 15.08839761 50469,6917.881,95.438,540.47,539.023,0.0
53746.0,STARLINK-4589,PAYLOAD,2023-08-04 00:07:58,15.08832312,0.0001106,53.2161,202.9763,91.9645,268.1474,1.0097e-05,-1.27e-06,0.0,0 STARLINK-4589,1 53746U 22107AY  23216.00553286 -.00000127  00000-0  10097-4 0  9992,2 53746  53.2161 202.9763 0001106  91.9645 268.1474 15.08832312 50590,6917.904,95.438,540.534,539.004,0.0
53746.0,STARLINK-4589,PAYLOAD,2023-08-04 16:01:49,15.08839297,0.000111,53.2162,200.0028,87.4823,272.6296,4.4847e-05,4.26e-06,0.0,0 STARLINK-4589,1 53746U 22107AY  23216.66792924  .00000426  00000-0  44847-4 0  9999,2 53746  53.2162 200.0028 0001110  87.4823 272.6296 15.08839297 50699,6917.883,95.438,540.515,538.98,0.0
53746.0,STARLINK-4589,PAYLOAD,2023-08-05 07:55:39,15.08851628,0.0001171,53.2163,197.0294,87.1938,272.9189,0.00015764,2.223e-05,0.0,0 STARLINK-4589,1 53746U 22107AY  23217.33031875  .00002223  00000-0  15764-3 0  9997,2 53746  53.2163 197.0294 0001171  87.1938 272.9189 15.08851628 50798,6917.845,95.437,540.52,538.9,0.0
53746.0,STARLINK-4589,PAYLOAD,2023-08-06 03:00:17,15.08839421,0.0001174,53.2162,193.4608,86.358,273.7546,0.00013634,1.883e-05,0.0,0 STARLINK-4589,1 53746U 22107AY  23218.12520668  .00001883  00000-0  13634-3 0  9993,2 53746  53.2162 193.4608 0001174  86.3580 273.7546 15.08839421 50910,6917.882,95.438,540.559,538.935,0.0
53746.0,STARLINK-4589,PAYLOAD,2023-08-06 15:43:23,15.08834067,0.0001167,53.2163,191.0816,82.5901,277.5224,4.2505e-05,3.89e-06,0.0,0 STARLINK-4589,1 53746U 22107AY  23218.65513320  .00000389  00000-0  42505-4 0  9998,2 53746  53.2163 191.0816 0001167  82.5901 277.5224 15.08834067 50997,6917.899,95.438,540.571,538.956,0.0
53746.0,STARLINK-4589,PAYLOAD,2023-08-08 07:28:01,15.08852798,0.0001178,53.2154,183.6466,95.2404,264.8722,0.00030107,4.509e-05,0.0,0 STARLINK-4589,1 53746U 22107AY  23220.31112708  .00004509  00000-0  30107-3 0  9991,2 53746  53.2154 183.6466 0001178  95.2404 264.8722 15.08852798 51248,6917.841,95.437,540.521,538.891,0.0
53746.0,STARLINK-4589,PAYLOAD,2023-08-08 23:21:53,15.08842936,0.000117,53.2153,180.673,88.6232,271.4894,0.00030696,4.601e-05,0.0,0 STARLINK-4589,1 53746U 22107AY  23220.97353354  .00004601  00000-0  30696-3 0  9993,2 53746  53.2153 180.6730 0001170  88.6232 271.4894 15.08842936 51343,6917.871,95.437,540.546,538.927,0.0
53746.0,STARLINK-4589,PAYLOAD,2023-08-10 05:34:12,15.08840219,0.0001513,53.2149,175.0233,86.8695,273.247,-6.0865e-05,-1.257e-05,0.0,0 STARLINK-4589,1 53746U 22107AY  23222.23209237 -.00001257  00000-0 -60865-4 0  9992,2 53746  53.2149 175.0233 0001513  86.8695 273.2470 15.08840219 51531,6917.88,95.438,540.791,538.698,0.0
53746.0,STARLINK-4589,PAYLOAD,2023-08-11 07:00:23,15.08836215,0.0001534,53.2174,170.2666,102.3931,257.7233,5.6483e-05,6.11e-06,0.0,0 STARLINK-4589,1 53746U 22107AY  23223.29193742  .00000611  00000-0  56483-4 0  9994,2 53746  53.2174 170.2666 0001534 102.3931 257.7233 15.08836215 51698,6917.892,95.438,540.818,538.696,0.0
53746.0,STARLINK-4589,PAYLOAD,2023-08-12 13:12:43,15.0883951,0.0001635,53.2192,164.6147,83.0266,277.0912,0.00010697,1.415e-05,0.0,0 STARLINK-4589,1 53746U 22107AY  23224.55050015  .00001415  00000-0  10697-3 0  9998,2 53746  53.2192 164.6147 0001635  83.0266 277.0912 15.08839510 51888,6917.882,95.438,540.878,538.616,0.0
53746.0,STARLINK-4589,PAYLOAD,2023-08-14 01:46:35,15.08841678,0.0001694,53.2185,157.776,98.9353,261.1831,0.00011819,1.594e-05,0.0,0 STARLINK-4589,1 53746U 22107AY  23226.07401958  .00001594  00000-0  11819-3 0  9998,2 53746  53.2185 157.7760 0001694  98.9353 261.1831 15.08841678 52110,6917.875,95.437,540.912,538.568,0.0
53746.0,STARLINK-4589,PAYLOAD,2023-08-16 01:28:09,15.08844398,0.0001196,53.2161,148.8555,94.9468,265.166,0.00011402,1.527e-05,0.0,0 STARLINK-4589,1 53746U 22107AY  23228.06121553  .00001527  00000-0  11402-3 0  9993,2 53746  53.2161 148.8555 0001196  94.9468 265.1660 15.08844398 52416,6917.867,95.437,540.559,538.905,0.0
53746.0,STARLINK-4589,PAYLOAD,2023-08-17 18:48:10,15.08841275,0.0001277,53.2167,141.1249,94.279,265.8348,2.3629e-05,8.8e-07,0.0,0 STARLINK-4589,1 53746U 22107AY  23229.78345875  .00000088  00000-0  23629-4 0  9994,2 53746  53.2167 141.1249 0001277  94.2790 265.8348 15.08841275 52678,6917.876,95.437,540.625,538.858,0.0
53746.0,STARLINK-4589,PAYLOAD,2023-08-18 01:09:42,15.0884763,0.0001363,53.2171,139.9361,95.7225,264.3923,8.0032e-05,9.86e-06,0.0,0 STARLINK-4589,1 53746U 22107AY  23230.04841276  .00000986  00000-0  80032-4 0  9999,2 53746  53.2171 139.9361 0001363  95.7225 264.3923 15.08847630 52717,6917.857,95.437,540.665,538.779,0.0
53746.0,STARLINK-4589,PAYLOAD,2023-08-18 17:03:35,15.0883564,0.0001504,53.217,136.9635,92.8448,267.2716,2.0637e-06,-2.55e-06,0.0,0 STARLINK-4589,1 53746U 22107AY  23230.71082556 -.00000255  00000-0  20637-5 0  9997,2 53746  53.2170 136.9635 0001504  92.8448 267.2716 15.08835640 52810,6917.894,95.438,540.799,538.718,0.0
53746.0,STARLINK-4589,PAYLOAD,2023-08-20 04:02:04,15.08836098,0.0001371,53.2169,130.4202,90.6113,269.5036,1.4747e-05,-5.3e-07,0.0,0 STARLINK-4589,1 53746U 22107AY  23232.16811127 -.00000053  00000-0  14747-4 0  9992,2 53746  53.2169 130.4202 0001371  90.6113 269.5036 15.08836098 53037,6917.892,95.438,540.706,538.809,0.0
53746.0,STARLINK-4589,PAYLOAD,2023-08-21 02:17:27,15.088576,0.0001428,53.2162,126.2574,90.2728,269.8428,0.00044709,6.838e-05,0.0,0 STARLINK-4589,1 53746U 22107AY  23233.09546060  .00006838  00000-0  44709-3 0  9992,2 53746  53.2162 126.2574 0001428  90.2728 269.8428 15.08857600 53171,6917.827,95.436,540.679,538.704,0.0
53746.0,STARLINK-4589,PAYLOAD,2023-08-22 02:08:15,15.08844748,0.0001583,53.2154,121.797,94.2001,265.9172,0.00014754,2.061e-05,0.0,0 STARLINK-4589,1 53746U 22107AY  23234.08906861  .00002061  00000-0  14754-3 0  9992,2 53746  53.2154 121.7970 0001583  94.2001 265.9172 15.08844748 53321,6917.866,95.437,540.826,538.636,0.0
53746.0,STARLINK-4589,PAYLOAD,2023-08-23 22:39:03,15.08843635,0.0001321,53.2151,113.4641,77.0593,283.0546,0.00018522,2.661e-05,0.0,0 STARLINK-4589,1 53746U 22107AY  23235.94378589  .00002661  00000-0  18522-3 0  9991,2 53746  53.2151 113.4641 0001321  77.0593 283.0546 15.08843635 54383,6917.869,95.437,540.648,538.82,0.0
53746.0,STARLINK-4589,PAYLOAD,2023-08-25 00:05:13,15.08845499,0.0001499,53.2168,108.7133,94.4732,265.6432,0.00014133,1.962e-05,0.0,0 STARLINK-4589,1 53746U 22107AY  23237.00362842  .00001962  00000-0  14133-3 0  9992,2 53746  53.2168 108.7133 0001499  94.4732 265.6432 15.08845499 53769,6917.864,95.437,540.766,538.692,0.0
53746.0,STARLINK-4589,PAYLOAD,2023-08-25 19:09:51,15.08836536,0.0001447,53.217,105.1439,87.985,272.1308,7.2462e-06,-1.73e-06,0.0,0 STARLINK-4589,1 53746U 22107AY  23237.79851255 -.00000173  00000-0  72462-5 0  9994,2 53746  53.2170 105.1439 0001447  87.9850 272.1308 15.08836536 53883,6917.891,95.438,540.757,538.755,0.0
53746.0,STARLINK-4589,PAYLOAD,2023-08-25 20:45:14,15.08837162,0.0001439,53.2167,104.8467,90.7012,269.4145,2.5611e-05,1.2e-06,0.0,0 STARLINK-4589,1 53746U 22107AY  23237.86475190  .00000120  00000-0  25611-4 0  9996,2 53746  53.2167 104.8467 0001439  90.7012 269.4145 15.08837162 54671,6917.889,95.438,540.75,538.759,0.0
53746.0,STARLINK-4589,PAYLOAD,2023-08-26 01:31:23,15.08843416,0.0001424,53.2168,103.9544,89.9901,270.1254,0.00013101,1.798e-05,0.0,0 STARLINK-4589,1 53746U 22107AY  23238.06346957  .00001798  00000-0  13101-3 0  9999,2 53746  53.2168 103.9544 0001424  89.9901 270.1254 15.08843416 53925,6917.87,95.437,540.72,538.75,0.0
53746.0,STARLINK-4589,PAYLOAD,2023-08-26 20:36:01,15.08838998,0.0001497,53.2171,100.3855,75.9909,284.125,7.1122e-06,-1.75e-06,0.0,0 STARLINK-4589,1 53746U 22107AY  23238.85835399 -.00000175  00000-0  71122-5 0  9997,2 53746  53.2171 100.3855 0001497  75.9909 284.1250 15.08838998 54828,6917.883,95.438,540.784,538.713,0.0
